NORAD_CAT_ID,OBJECT_NAME,OBJECT_TYPE,EPOCH,MEAN_MOTION,ECCENTRICITY,INCLINATION,RA_OF_ASC_NODE,ARG_OF_PERICENTER,MEAN_ANOMALY,BSTAR,MEAN_MOTION_DOT,MEAN_MOTION_DDOT,TLE_LINE0,TLE_LINE1,TLE_LINE2,SEMIMAJOR_AXIS,PERIOD,APOGEE,PERIGEE,DECAYED
55746.0,STARLINK-5579,PAYLOAD,2024-06-28 21:48:52,14.98336905,0.0002918,70.0005,4.5895,271.3126,88.7699,0.00012768,1.431e-05,0.0,0 STARLINK-5579,1 55746U 23028F   24180.90894674  .00001431  00000-0  12768-3 0  9990,2 55746  70.0005   4.5895 0002918 271.3126  88.7699 14.98336905 73357,6950.172,96.107,574.065,570.008,0.0
55746.0,STARLINK-5579,PAYLOAD,2024-06-29 05:49:33,14.98332671,0.000298,70.0002,3.7471,272.1193,87.9625,8.4486e-05,9.15e-06,0.0,0 STARLINK-5579,1 55746U 23028F   24181.24274959  .00000915  00000-0  84486-4 0  9999,2 55746  70.0002   3.7471 0002980 272.1193  87.9625 14.98332671 73409,6950.185,96.107,574.121,569.978,0.0
55746.0,STARLINK-5579,PAYLOAD,2024-06-29 13:50:14,14.98325283,0.0002836,70.0015,2.9033,271.456,88.6274,7.0772e-05,7.51e-06,0.0,0 STARLINK-5579,1 55746U 23028F   24181.57655530  .00000751  00000-0  70772-4 0  9994,2 55746  70.0015   2.9033 0002836 271.4560  88.6274 14.98325283 73452,6950.207,96.107,574.044,570.101,0.0
55746.0,STARLINK-5579,PAYLOAD,2024-06-29 20:14:46,14.98325044,0.0002877,70.0004,2.2314,270.6973,89.3856,-4.6982e-05,-6.53e-06,0.0,0 STARLINK-5579,1 55746U 23028F   24181.84359933 -.00000653  00000-0 -46982-4 0  9991,2 55746  70.0004   2.2314 0002877 270.6973  89.3856 14.98325044 73492,6950.208,96.107,574.073,570.074,0.0
55746.0,STARLINK-5579,PAYLOAD,2024-06-29 21:50:55,14.98324812,0.0002808,70.0006,2.0633,269.9362,90.1476,-3.4398e-05,-5.03e-06,0.0,0 STARLINK-5579,1 55746U 23028F   24181.91035940 -.00000503  00000-0 -34398-4 0  9990,2 55746  70.0006   2.0633 0002808 269.9362  90.1476 14.98324812 73505,6950.209,96.107,574.026,570.122,0.0
55746.0,STARLINK-5579,PAYLOAD,2024-06-30 10:39:59,14.9833013,0.0002883,70.0003,0.717,270.9767,89.1061,4.2254e-06,-4.3e-07,0.0,0 STARLINK-5579,1 55746U 23028F   24182.44443546 -.00000043  00000-0  42254-5 0  9993,2 55746  70.0003   0.7170 0002883 270.9767  89.1061 14.98330130 73583,6950.192,96.107,574.061,570.054,0.0
55746.0,STARLINK-5579,PAYLOAD,2024-06-30 13:52:15,14.98330597,0.000291,70.0005,0.3803,270.8669,89.2157,2.784e-05,2.39e-06,0.0,0 STARLINK-5579,1 55746U 23028F   24182.57795441  .00000239  00000-0  27840-4 0  9990,2 55746  70.0005   0.3803 0002910 270.8669  89.2157 14.98330597 73602,6950.191,96.107,574.079,570.034,0.0
55746.0,STARLINK-5579,PAYLOAD,2024-06-30 21:52:55,14.98336906,0.0002935,70.0002,359.5389,269.5469,90.5354,3.2087e-05,2.9e-06,0.0,0 STARLINK-5579,1 55746U 23028F   24182.91174985  .00000290  00000-0  32087-4 0  9998,2 55746  70.0002 359.5389 0002935 269.5469  90.5354 14.98336906 73656,6950.172,96.107,574.076,569.997,0.0
55746.0,STARLINK-5579,PAYLOAD,2024-07-01 12:18:08,14.98325933,0.0002824,70.0004,358.0238,271.2814,88.8022,0.0001126,1.251e-05,0.0,0 STARLINK-5579,1 55746U 23028F   24183.51259413  .00001251  00000-0  11260-3 0  9992,2 55746  70.0004 358.0238 0002824 271.2814  88.8022 14.98325933 73746,6950.205,96.107,574.033,570.108,0.0
55746.0,STARLINK-5579,PAYLOAD,2024-07-01 13:54:16,14.98325727,0.000283,70.0004,357.8555,271.2572,88.8263,0.00010899,1.208e-05,0.0,0 STARLINK-5579,1 55746U 23028F   24183.57935453  .00001208  00000-0  10899-3 0  9992,2 55746  70.0004 357.8555 0002830 271.2572  88.8263 14.98325727 73752,6950.206,96.107,574.038,570.104,0.0
55746.0,STARLINK-5579,PAYLOAD,2024-07-01 21:54:56,14.98329496,0.0002898,70.0004,357.0143,271.3189,88.7639,0.00010475,1.157e-05,0.0,0 STARLINK-5579,1 55746U 23028F   24183.91315299  .00001157  00000-0  10475-3 0  9993,2 55746  70.0004 357.0143 0002898 271.3189  88.7639 14.98329496 73805,6950.194,96.107,574.074,570.045,0.0
55746.0,STARLINK-5579,PAYLOAD,2024-07-02 12:20:09,14.98330334,0.0002873,70.0005,355.4995,270.2979,89.7851,7.5799e-06,-3e-08,0.0,0 STARLINK-5579,1 55746U 23028F   24184.51399533 -.00000003  00000-0  75799-5 0  9995,2 55746  70.0005 355.4995 0002873 270.2979  89.7851 14.98330334 73890,6950.192,96.107,574.054,570.06,0.0
55746.0,STARLINK-5579,PAYLOAD,2024-07-02 13:56:17,14.98330462,0.0002877,70.0005,355.3312,270.2588,89.8241,8.6499e-06,1e-07,0.0,0 STARLINK-5579,1 55746U 23028F   24184.58075515  .00000010  00000-0  86499-5 0  9999,2 55746  70.0005 355.3312 0002877 270.2588  89.8241 14.98330462 73900,6950.191,96.107,574.056,570.057,0.0
55746.0,STARLINK-5579,PAYLOAD,2024-07-02 21:56:57,14.98332882,0.0002841,70.0007,354.49,268.7266,91.3568,3.6891e-05,3.47e-06,0.0,0 STARLINK-5579,1 55746U 23028F   24184.91455252  .00000347  00000-0  36891-4 0  9999,2 55746  70.0007 354.4900 0002841 268.7266  91.3568 14.98332882 73954,6950.184,96.107,574.024,570.074,0.0
55746.0,STARLINK-5579,PAYLOAD,2024-07-03 12:22:10,14.98328794,0.0002843,70.0008,352.9751,270.1022,89.9811,1.862e-05,1.29e-06,0.0,0 STARLINK-5579,1 55746U 23028F   24185.51539483  .00000129  00000-0  18620-4 0  9993,2 55746  70.0008 352.9751 0002843 270.1022  89.9811 14.98328794 74043,6950.197,96.107,574.038,570.086,0.0
55746.0,STARLINK-5579,PAYLOAD,2024-07-03 21:58:58,14.9833154,0.0002872,70.0008,351.9652,268.7218,91.3612,4.3247e-05,4.23e-06,0.0,0 STARLINK-5579,1 55746U 23028F   24185.91595251  .00000423  00000-0  43247-4 0  9992,2 55746  70.0008 351.9652 0002872 268.7218  91.3612 14.98331540 74100,6950.188,96.107,574.049,570.057,0.0
55746.0,STARLINK-5579,PAYLOAD,2024-07-04 12:24:11,14.98322177,0.000295,70.0006,350.45,269.9013,90.1808,9.7018e-05,1.065e-05,0.0,0 STARLINK-5579,1 55746U 23028F   24186.51679710  .00001065  00000-0  97018-4 0  9990,2 55746  70.0006 350.4500 0002950 269.9013  90.1808 14.98322177 74196,6950.217,96.108,574.132,570.032,0.0
55746.0,STARLINK-5579,PAYLOAD,2024-07-04 14:00:19,14.98327686,0.0002891,70.0009,350.2818,269.2018,90.881,1.9024e-05,1.34e-06,0.0,0 STARLINK-5579,1 55746U 23028F   24186.58355551  .00000134  00000-0  19024-4 0  9998,2 55746  70.0009 350.2818 0002891 269.2018  90.8810 14.98327686 74203,6950.2,96.107,574.074,570.056,0.0
55746.0,STARLINK-5579,PAYLOAD,2024-07-04 20:24:51,14.98331501,0.0002931,70.0008,349.6088,270.6684,89.4139,3.4157e-05,3.15e-06,0.0,0 STARLINK-5579,1 55746U 23028F   24186.85059297  .00000315  00000-0  34157-4 0  9991,2 55746  70.0008 349.6088 0002931 270.6684  89.4139 14.98331501 74246,6950.188,96.107,574.09,570.016,0.0
55746.0,STARLINK-5579,PAYLOAD,2024-07-05 14:02:19,14.98333437,0.0003057,70.0006,347.7569,271.6299,88.451,5.6402e-05,5.8e-06,0.0,0 STARLINK-5579,1 55746U 23028F   24187.58495038  .00000580  00000-0  56402-4 0  9990,2 55746  70.0006 347.7569 0003057 271.6299  88.4510 14.98333437 74354,6950.182,96.107,574.172,569.923,0.0
55746.0,STARLINK-5579,PAYLOAD,2024-07-05 20:26:51,14.98337605,0.0003028,70.0006,347.0828,269.9299,90.1513,9.8564e-05,1.083e-05,0.0,0 STARLINK-5579,1 55746U 23028F   24187.85198576  .00001083  00000-0  98564-4 0  9991,2 55746  70.0006 347.0828 0003028 269.9299  90.1513 14.98337605 74391,6950.169,96.107,574.139,569.93,0.0
55746.0,STARLINK-5579,PAYLOAD,2024-07-06 04:27:32,14.98330468,0.0002972,70.0008,346.2406,270.0657,90.0161,6.5848e-06,-1.4e-07,0.0,0 STARLINK-5579,1 55746U 23028F   24188.18579180 -.00000014  00000-0  65848-5 0  9996,2 55746  70.0008 346.2406 0002972 270.0657  90.0161 14.98330468 74448,6950.191,96.107,574.122,569.991,0.0
55746.0,STARLINK-5579,PAYLOAD,2024-07-06 14:04:21,14.98325676,0.0002998,70.0007,345.2308,270.1413,89.9403,1.2627e-05,5.8e-07,0.0,0 STARLINK-5579,1 55746U 23028F   24188.58635456  .00000058  00000-0  12627-4 0  9992,2 55746  70.0007 345.2308 0002998 270.1413  89.9403 14.98325676 74504,6950.206,96.107,574.155,569.988,0.0
55746.0,STARLINK-5579,PAYLOAD,2024-07-06 20:28:53,14.98328347,0.0003039,70.0008,344.5583,271.0916,88.9895,-9.409e-06,-2.05e-06,0.0,0 STARLINK-5579,1 55746U 23028F   24188.85339390 -.00000205  00000-0 -94090-5 0  9991,2 55746  70.0008 344.5583 0003039 271.0916  88.9895 14.98328347 74543,6950.198,96.107,574.175,569.951,0.0
55746.0,STARLINK-5579,PAYLOAD,2024-07-07 12:30:13,14.98324556,0.0003092,70.0008,342.8753,271.1062,88.9742,0.00012024,1.342e-05,0.0,0 STARLINK-5579,1 55746U 23028F   24189.52099308  .00001342  00000-0  12024-3 0  9994,2 55746  70.0008 342.8753 0003092 271.1062  88.9742 14.98324556 74645,6950.21,96.107,574.224,569.926,0.0
55746.0,STARLINK-5579,PAYLOAD,2024-07-07 14:06:21,14.98332033,0.0002985,70.001,342.7061,270.2471,89.8346,-1.2453e-05,-2.42e-06,0.0,0 STARLINK-5579,1 55746U 23028F   24189.58775144 -.00000242  00000-0 -12453-4 0  9996,2 55746  70.0010 342.7061 0002985 270.2471  89.8346 14.98332033 74653,6950.187,96.107,574.126,569.977,0.0
55746.0,STARLINK-5579,PAYLOAD,2024-07-07 20:30:53,14.98336936,0.0003012,70.0011,342.0334,274.1196,85.9619,1.8599e-05,1.29e-06,0.0,0 STARLINK-5579,1 55746U 23028F   24189.85478732  .00000129  00000-0  18599-4 0  9998,2 55746  70.0011 342.0334 0003012 274.1196  85.9619 14.98336936 74699,6950.171,96.107,574.13,569.943,0.0
55746.0,STARLINK-5579,PAYLOAD,2024-07-08 14:08:22,14.98332566,0.0003064,70.001,340.1818,274.1553,85.9256,0.00011372,1.264e-05,0.0,0 STARLINK-5579,1 55746U 23028F   24190.58914612  .00001264  00000-0  11372-3 0  9994,2 55746  70.0010 340.1818 0003064 274.1553  85.9256 14.98332566 74803,6950.185,96.107,574.179,569.92,0.0
55746.0,STARLINK-5579,PAYLOAD,2024-07-08 20:32:53,14.98339323,0.0003015,70.0012,339.5084,274.3623,85.7191,0.0001746,1.991e-05,0.0,0 STARLINK-5579,1 55746U 23028F   24190.85617966  .00001991  00000-0  17460-3 0  9997,2 55746  70.0012 339.5084 0003015 274.3623  85.7191 14.98339323 74846,6950.164,96.106,574.125,569.934,0.0
55746.0,STARLINK-5579,PAYLOAD,2024-07-09 12:34:15,14.98325094,0.0002889,70.0013,337.825,268.8061,91.2767,-3.1526e-05,-4.69e-06,0.0,0 STARLINK-5579,1 55746U 23028F   24191.52379253 -.00000469  00000-0 -31526-4 0  9997,2 55746  70.0013 337.8250 0002889 268.8061  91.2767 14.98325094 74947,6950.208,96.107,574.081,570.065,0.0
